[{"OBJECT_NAME":"STARLINK-33900","OBJECT_ID":"2025-091AB","EPOCH":"2026-01-12T10:59:19.121280","MEAN_MOTION":15.27598841,"ECCENTRICITY":0.00010484,"INCLINATION":43.0021,"RA_OF_ASC_NODE":9.9698,"ARG_OF_PERICENTER":252.0284,"MEAN_ANOMALY":108.0454,"EPHEMERIS_TYPE":0,"CLASSIFICATION_TYPE":"U","NORAD_CAT_ID":63800,"ELEMENT_SET_NO":999,"REV_AT_EPOCH":4041,"BSTAR":0.00077148648,"MEAN_MOTION_DOT":0.0002104,"MEAN_MOTION_DDOT":0},{"OBJECT_NAME":"STARLINK-33975","OBJECT_ID":"2025-091AC","EPOCH":"2026-01-12T16:55:35.485248","MEAN_MOTION":15.2758917,"ECCENTRICITY":0.00012484,"INCLINATION":43.0034,"RA_OF_ASC_NODE":8.389,"ARG_OF_PERICENTER":275.825,"MEAN_ANOMALY":84.246,"EPHEMERIS_TYPE":0,"CLASSIFICATION_TYPE":"U","NORAD_CAT_ID":63802,"ELEMENT_SET_NO":999,"REV_AT_EPOCH":4045,"BSTAR":0.00038037059,"MEAN_MOTION_DOT":0.00010222,"MEAN_MOTION_DDOT":0},{"OBJECT_NAME":"STARLINK-33951","OBJECT_ID":"2025-091AD","EPOCH":"2026-01-12T17:02:59.984736","MEAN_MOTION":15.27577194,"ECCENTRICITY":3.106e-5,"INCLINATION":43,"RA_OF_ASC_NODE":8.4226,"ARG_OF_PERICENTER":173.875,"MEAN_ANOMALY":186.2105,"EPHEMERIS_TYPE":0,"CLASSIFICATION_TYPE":"U","NORAD_CAT_ID":63803,"ELEMENT_SET_NO":999,"REV_AT_EPOCH":4039,"BSTAR":0.00082717982,"MEAN_MOTION_DOT":0.00022568,"MEAN_MOTION_DDOT":0},{"OBJECT_NAME":"STARLINK-33909","OBJECT_ID":"2025-092A","EPOCH":"2026-01-12T16:17:38.069376","MEAN_MOTION":15.27543438,"ECCENTRICITY":0.00014895,"INCLINATION":42.9975,"RA_OF_ASC_NODE":129.2916,"ARG_OF_PERICENTER":280.1009,"MEAN_ANOMALY":79.9675,"EPHEMERIS_TYPE":0,"CLASSIFICATION_TYPE":"U","NORAD_CAT_ID":63804,"ELEMENT_SET_NO":999,"REV_AT_EPOCH":4004,"BSTAR":0.00071453515,"MEAN_MOTION_DOT":0.0001943,"MEAN_MOTION_DDOT":0},{"OBJECT_NAME":"STARLINK-34029","OBJECT_ID":"2025-092B","EPOCH":"2026-01-12T16:10:13.662336","MEAN_MOTION":15.27572591,"ECCENTRICITY":0.00024267,"INCLINATION":42.9986,"RA_OF_ASC_NODE":129.2456,"ARG_OF_PERICENTER":288.3499,"MEAN_ANOMALY":71.7089,"EPHEMERIS_TYPE":0,"CLASSIFICATION_TYPE":"U","NORAD_CAT_ID":63805,"ELEMENT_SET_NO":999,"REV_AT_EPOCH":4004,"BSTAR":0.00075893009,"MEAN_MOTION_DOT":0.00020677,"MEAN_MOTION_DDOT":0},{"OBJECT_NAME":"STARLINK-34102","OBJECT_ID":"2025-092C","EPOCH":"2026-01-12T17:42:32.177088","MEAN_MOTION":15.27564369,"ECCENTRICITY":0.00015206,"INCLINATION":42.9985,"RA_OF_ASC_NODE":128.8714,"ARG_OF_PERICENTER":265.513,"MEAN_ANOMALY":94.5548,"EPHEMERIS_TYPE":0,"CLASSIFICATION_TYPE":"U","NORAD_CAT_ID":63806,"ELEMENT_SET_NO":999,"REV_AT_EPOCH":4010,"BSTAR":0.00080606146,"MEAN_MOTION_DOT":0.00021975,"MEAN_MOTION_DDOT":0},{"OBJECT_NAME":"STARLINK-34109","OBJECT_ID":"2025-092D","EPOCH":"2026-01-12T16:41:28.285728","MEAN_MOTION":15.27561501,"ECCENTRICITY":0.00014993,"INCLINATION":43.0005,"RA_OF_ASC_NODE":128.5519,"ARG_OF_PERICENTER":254.9176,"MEAN_ANOMALY":105.151,"EPHEMERIS_TYPE":0,"CLASSIFICATION_TYPE":"U","NORAD_CAT_ID":63807,"ELEMENT_SET_NO":999,"REV_AT_EPOCH":4005,"BSTAR":0.00073862019,"MEAN_MOTION_DOT":0.00020107,"MEAN_MOTION_DDOT":0},{"OBJECT_NAME":"STARLINK-34091","OBJECT_ID":"2025-092E","EPOCH":"2026-01-12T17:18:28.368288","MEAN_MOTION":15.2758169,"ECCENTRICITY":0.00027819,"INCLINATION":43.0024,"RA_OF_ASC_NODE":128.7454,"ARG_OF_PERICENTER":271.5198,"MEAN_ANOMALY":88.5335,"EPHEMERIS_TYPE":0,"CLASSIFICATION_TYPE":"U","NORAD_CAT_ID":63808,"ELEMENT_SET_NO":999,"REV_AT_EPOCH":4010,"BSTAR":0.0009068928,"MEAN_MOTION_DOT":0.0002478,"MEAN_MOTION_DDOT":0},{"OBJECT_NAME":"STARLINK-34095","OBJECT_ID":"2025-092F","EPOCH":"2026-01-12T16:15:46.717920","MEAN_MOTION":15.27576067,"ECCENTRICITY":0.00017861,"INCLINATION":42.9988,"RA_OF_ASC_NODE":129.28,"ARG_OF_PERICENTER":259.4907,"MEAN_ANOMALY":100.5743,"EPHEMERIS_TYPE":0,"CLASSIFICATION_TYPE":"U","NORAD_CAT_ID":63809,"ELEMENT_SET_NO":999,"REV_AT_EPOCH":4004,"BSTAR":0.0011678634,"MEAN_MOTION_DOT":0.00032011,"MEAN_MOTION_DDOT":0},{"OBJECT_NAME":"STARLINK-34127","OBJECT_ID":"2025-092G","EPOCH":"2026-01-12T16:52:34.356288","MEAN_MOTION":15.27564295,"ECCENTRICITY":0.00016928,"INCLINATION":43.0022,"RA_OF_ASC_NODE":128.6099,"ARG_OF_PERICENTER":270.539,"MEAN_ANOMALY":89.5267,"EPHEMERIS_TYPE":0,"CLASSIFICATION_TYPE":"U","NORAD_CAT_ID":63810,"ELEMENT_SET_NO":999,"REV_AT_EPOCH":4005,"BSTAR":0.00078123452,"MEAN_MOTION_DOT":0.00021288,"MEAN_MOTION_DDOT":0},{"OBJECT_NAME":"STARLINK-34110","OBJECT_ID":"2025-092H","EPOCH":"2026-01-12T14:50:30.543648","MEAN_MOTION":15.3079215,"ECCENTRICITY":0.00028622,"INCLINATION":43.0029,"RA_OF_ASC_NODE":128.845,"ARG_OF_PERICENTER":325.5007,"MEAN_ANOMALY":34.566,"EPHEMERIS_TYPE":0,"CLASSIFICATION_TYPE":"U","NORAD_CAT_ID":63811,"ELEMENT_SET_NO":999,"REV_AT_EPOCH":4009,"BSTAR":0.0027121716,"MEAN_MOTION_DOT":0.00083057,"MEAN_MOTION_DDOT":0},{"OBJECT_NAME":"STARLINK-34101","OBJECT_ID":"2025-092J","EPOCH":"2026-01-12T14:48:48.424896","MEAN_MOTION":15.27572087,"ECCENTRICITY":0.00011532,"INCLINATION":42.9942,"RA_OF_ASC_NODE":128.815,"ARG_OF_PERICENTER":263.8679,"MEAN_ANOMALY":96.2042,"EPHEMERIS_TYPE":0,"CLASSIFICATION_TYPE":"U","NORAD_CAT_ID":63812,"ELEMENT_SET_NO":999,"REV_AT_EPOCH":3998,"BSTAR":0.00091201961,"MEAN_MOTION_DOT":0.00024914,"MEAN_MOTION_DDOT":0},{"OBJECT_NAME":"STARLINK-34065","OBJECT_ID":"2025-092K","EPOCH":"2026-01-12T16:29:12.422976","MEAN_MOTION":15.27578778,"ECCENTRICITY":0.00014807,"INCLINATION":43.0019,"RA_OF_ASC_NODE":124.9801,"ARG_OF_PERICENTER":261.7205,"MEAN_ANOMALY":98.3478,"EPHEMERIS_TYPE":0,"CLASSIFICATION_TYPE":"U","NORAD_CAT_ID":63813,"ELEMENT_SET_NO":999,"REV_AT_EPOCH":4003,"BSTAR":0.001078028,"MEAN_MOTION_DOT":0.00029521,"MEAN_MOTION_DDOT":0},{"OBJECT_NAME":"STARLINK-34057","OBJECT_ID":"2025-092L","EPOCH":"2026-01-12T14:59:54.721824","MEAN_MOTION":15.27561724,"ECCENTRICITY":0.00018433,"INCLINATION":43.0008,"RA_OF_ASC_NODE":128.8783,"ARG_OF_PERICENTER":269.7672,"MEAN_ANOMALY":90.2968,"EPHEMERIS_TYPE":0,"CLASSIFICATION_TYPE":"U","NORAD_CAT_ID":63814,"ELEMENT_SET_NO":999,"REV_AT_EPOCH":4004,"BSTAR":0.00062659846,"MEAN_MOTION_DOT":0.00017011,"MEAN_MOTION_DDOT":0},{"OBJECT_NAME":"STARLINK-34060","OBJECT_ID":"2025-092M","EPOCH":"2026-01-12T15:01:45.097824","MEAN_MOTION":15.27594558,"ECCENTRICITY":0.00019901,"INCLINATION":43.0015,"RA_OF_ASC_NODE":128.8912,"ARG_OF_PERICENTER":273.3013,"MEAN_ANOMALY":86.7611,"EPHEMERIS_TYPE":0,"CLASSIFICATION_TYPE":"U","NORAD_CAT_ID":63815,"ELEMENT_SET_NO":999,"REV_AT_EPOCH":3998,"BSTAR":0.00073214353,"MEAN_MOTION_DOT":0.00019949,"MEAN_MOTION_DDOT":0},{"OBJECT_NAME":"STARLINK-34048","OBJECT_ID":"2025-092N","EPOCH":"2026-01-12T16:06:31.753440","MEAN_MOTION":15.27564782,"ECCENTRICITY":0.0001457,"INCLINATION":43.0028,"RA_OF_ASC_NODE":129.2311,"ARG_OF_PERICENTER":244.6529,"MEAN_ANOMALY":115.4172,"EPHEMERIS_TYPE":0,"CLASSIFICATION_TYPE":"U","NORAD_CAT_ID":63816,"ELEMENT_SET_NO":999,"REV_AT_EPOCH":4009,"BSTAR":0.00066611699,"MEAN_MOTION_DOT":0.00018104,"MEAN_MOTION_DDOT":0},{"OBJECT_NAME":"STARLINK-33959","OBJECT_ID":"2025-092P","EPOCH":"2026-01-12T16:19:16.590432","MEAN_MOTION":15.27593249,"ECCENTRICITY":0.00017275,"INCLINATION":42.9973,"RA_OF_ASC_NODE":128.4318,"ARG_OF_PERICENTER":271.3897,"MEAN_ANOMALY":88.6757,"EPHEMERIS_TYPE":0,"CLASSIFICATION_TYPE":"U","NORAD_CAT_ID":63817,"ELEMENT_SET_NO":999,"REV_AT_EPOCH":4010,"BSTAR":0.00072951973,"MEAN_MOTION_DOT":0.00019875,"MEAN_MOTION_DDOT":0},{"OBJECT_NAME":"STARLINK-34058","OBJECT_ID":"2025-092Q","EPOCH":"2026-01-12T16:28:31.154016","MEAN_MOTION":15.27568712,"ECCENTRICITY":0.00016008,"INCLINATION":43.0004,"RA_OF_ASC_NODE":128.4831,"ARG_OF_PERICENTER":266.1722,"MEAN_ANOMALY":93.8947,"EPHEMERIS_TYPE":0,"CLASSIFICATION_TYPE":"U","NORAD_CAT_ID":63818,"ELEMENT_SET_NO":999,"REV_AT_EPOCH":4010,"BSTAR":0.0010499155,"MEAN_MOTION_DOT":0.00028732,"MEAN_MOTION_DDOT":0},{"OBJECT_NAME":"STARLINK-34055","OBJECT_ID":"2025-092R","EPOCH":"2026-01-12T08:10:10.883136","MEAN_MOTION":15.27564323,"ECCENTRICITY":0.0001379,"INCLINATION":42.9997,"RA_OF_ASC_NODE":131.0231,"ARG_OF_PERICENTER":250.1362,"MEAN_ANOMALY":109.9341,"EPHEMERIS_TYPE":0,"CLASSIFICATION_TYPE":"U","NORAD_CAT_ID":63819,"ELEMENT_SET_NO":999,"REV_AT_EPOCH":3999,"BSTAR":0.00028969706,"MEAN_MOTION_DOT":7.714e-5,"MEAN_MOTION_DDOT":0},{"OBJECT_NAME":"STARLINK-33794","OBJECT_ID":"2025-092S","EPOCH":"2026-01-12T14:17:34.519488","MEAN_MOTION":15.2754619,"ECCENTRICITY":0.00015282,"INCLINATION":42.999,"RA_OF_ASC_NODE":129.5195,"ARG_OF_PERICENTER":286.2173,"MEAN_ANOMALY":73.8511,"EPHEMERIS_TYPE":0,"CLASSIFICATION_TYPE":"U","NORAD_CAT_ID":63820,"ELEMENT_SET_NO":999,"REV_AT_EPOCH":4003,"BSTAR":0.00041062544,"MEAN_MOTION_DOT":0.00011043,"MEAN_MOTION_DDOT":0},{"OBJECT_NAME":"STARLINK-34047","OBJECT_ID":"2025-092T","EPOCH":"2026-01-12T17:20:19.711968","MEAN_MOTION":15.27561129,"ECCENTRICITY":0.00016717,"INCLINATION":43.0008,"RA_OF_ASC_NODE":128.7522,"ARG_OF_PERICENTER":262.252,"MEAN_ANOMALY":97.8142,"EPHEMERIS_TYPE":0,"CLASSIFICATION_TYPE":"U","NORAD_CAT_ID":63821,"ELEMENT_SET_NO":999,"REV_AT_EPOCH":4010,"BSTAR":0.00058472527,"MEAN_MOTION_DOT":0.00015854,"MEAN_MOTION_DDOT":0},{"OBJECT_NAME":"STARLINK-34094","OBJECT_ID":"2025-092U","EPOCH":"2026-01-12T17:35:49.401024","MEAN_MOTION":15.27566495,"ECCENTRICITY":0.00014704,"INCLINATION":42.9978,"RA_OF_ASC_NODE":125.3415,"ARG_OF_PERICENTER":256.1198,"MEAN_ANOMALY":103.949,"EPHEMERIS_TYPE":0,"CLASSIFICATION_TYPE":"U","NORAD_CAT_ID":63822,"ELEMENT_SET_NO":999,"REV_AT_EPOCH":4014,"BSTAR":0.00063348076,"MEAN_MOTION_DOT":0.00017204,"MEAN_MOTION_DDOT":0},{"OBJECT_NAME":"STARLINK-34043","OBJECT_ID":"2025-092V","EPOCH":"2026-01-12T16:05:09.262176","MEAN_MOTION":15.27572224,"ECCENTRICITY":0.0001594,"INCLINATION":42.9982,"RA_OF_ASC_NODE":124.8633,"ARG_OF_PERICENTER":263.0192,"MEAN_ANOMALY":97.0478,"EPHEMERIS_TYPE":0,"CLASSIFICATION_TYPE":"U","NORAD_CAT_ID":63823,"ELEMENT_SET_NO":999,"REV_AT_EPOCH":4009,"BSTAR":0.00099343592,"MEAN_MOTION_DOT":0.0002717,"MEAN_MOTION_DDOT":0}]
